{
  "type": "FeatureCollection",
  "features": [
    {
      "type": "Feature",
      "properties": {
        "norad_id": 55973,
        "name": "TIANMU-1 03",
        "group": "weather",
        "lat": 38.14734304861867,
        "lon": 141.2645286547801,
        "alt_km": 438.2410922581648,
        "timestamp": "2025-12-10T14:53:36.768940+00:00",
        "meta_object_name": "TIANMU-1 03",
        "meta_object_id": "2023-039A",
        "meta_epoch": "2025-12-10T06:56:01.670208",
        "meta_mean_motion": 15.40807451,
        "meta_eccentricity": 0.00044835,
        "meta_inclination": 97.5113,
        "meta_ra_of_asc_node": 146.8723,
        "meta_arg_of_pericenter": 67.7028,
        "meta_mean_anomaly": 292.4693,
        "meta_ephemeris_type": 0,
        "meta_classification_type": "U",
        "meta_norad_cat_id": 55973,
        "meta_element_set_no": 999,
        "meta_rev_at_epoch": 15168,
        "meta_bstar": 0.00054727964,
        "meta_mean_motion_dot": 0.0002238,
        "meta_mean_motion_ddot": 0,
        "tle_line1": "1 55973U 23039A   25344.28890822  .00022380  00000+0  54728-3 0  9996",
        "tle_line2": "2 55973  97.5113 146.8723 0004483  67.7028 292.4693 15.40807451151688"
      },
      "geometry": {
        "type": "Point",
        "coordinates": [
          141.2645286547801,
          38.14734304861867
        ]
      }
    },
    {
      "type": "Feature",
      "properties": {
        "norad_id": 55974,
        "name": "TIANMU-1 04",
        "group": "weather",
        "lat": 29.49838944029138,
        "lon": -29.318024143697123,
        "alt_km": 441.20854789738496,
        "timestamp": "2025-12-10T14:53:36.768949+00:00",
        "meta_object_name": "TIANMU-1 04",
        "meta_object_id": "2023-039B",
        "meta_epoch": "2025-12-10T06:27:11.924064",
        "meta_mean_motion": 15.41140934,
        "meta_eccentricity": 0.00051771,
        "meta_inclination": 97.5044,
        "meta_ra_of_asc_node": 146.0438,
        "meta_arg_of_pericenter": 63.6329,
        "meta_mean_anomaly": 296.5448,
        "meta_ephemeris_type": 0,
        "meta_classification_type": "U",
        "meta_norad_cat_id": 55974,
        "meta_element_set_no": 999,
        "meta_rev_at_epoch": 15168,
        "meta_bstar": 0.00051497325,
        "meta_mean_motion_dot": 0.00021287,
        "meta_mean_motion_ddot": 0,
        "tle_line1": "1 55974U 23039B   25344.26888801  .00021287  00000+0  51497-3 0  9994",
        "tle_line2": "2 55974  97.5044 146.0438 0005177  63.6329 296.5448 15.41140934151687"
      },
      "geometry": {
        "type": "Point",
        "coordinates": [
          -29.318024143697123,
          29.49838944029138
        ]
      }
    },
    {
      "type": "Feature",
      "properties": {
        "norad_id": 55975,
        "name": "TIANMU-1 05",
        "group": "weather",
        "lat": -4.971500196039543,
        "lon": -33.76006694048534,
        "alt_km": 448.13472669309795,
        "timestamp": "2025-12-10T14:53:36.768994+00:00",
        "meta_object_name": "TIANMU-1 05",
        "meta_object_id": "2023-039C",
        "meta_epoch": "2025-12-10T06:18:02.346624",
        "meta_mean_motion": 15.40764574,
        "meta_eccentricity": 0.0004386,
        "meta_inclination": 97.509,
        "meta_ra_of_asc_node": 146.5296,
        "meta_arg_of_pericenter": 84.8025,
        "meta_mean_anomaly": 275.3721,
        "meta_ephemeris_type": 0,
        "meta_classification_type": "U",
        "meta_norad_cat_id": 55975,
        "meta_element_set_no": 999,
        "meta_rev_at_epoch": 15166,
        "meta_bstar": 0.00053100499,
        "meta_mean_motion_dot": 0.00021679,
        "meta_mean_motion_ddot": 0,
        "tle_line1": "1 55975U 23039C   25344.26252716  .00021679  00000+0  53100-3 0  9993",
        "tle_line2": "2 55975  97.5090 146.5296 0004386  84.8025 275.3721 15.40764574151663"
      },
      "geometry": {
        "type": "Point",
        "coordinates": [
          -33.76006694048534,
          -4.971500196039543
        ]
      }
    },
    {
      "type": "Feature",
      "properties": {
        "norad_id": 55976,
        "name": "TIANMU-1 06",
        "group": "weather",
        "lat": 41.81663016521283,
        "lon": -25.861327506105976,
        "alt_km": 437.5450147791598,
        "timestamp": "2025-12-10T14:53:36.769010+00:00",
        "meta_object_name": "TIANMU-1 06",
        "meta_object_id": "2023-039D",
        "meta_epoch": "2025-12-10T06:30:27.037728",
        "meta_mean_motion": 15.41194267,
        "meta_eccentricity": 0.0004726,
        "meta_inclination": 97.5101,
        "meta_ra_of_asc_node": 147.0014,
        "meta_arg_of_pericenter": 80.4563,
        "meta_mean_anomaly": 279.7217,
        "meta_ephemeris_type": 0,
        "meta_classification_type": "U",
        "meta_norad_cat_id": 55976,
        "meta_element_set_no": 999,
        "meta_rev_at_epoch": 15168,
        "meta_bstar": 0.00053746523,
        "meta_mean_motion_dot": 0.00022261,
        "meta_mean_motion_ddot": 0,
        "tle_line1": "1 55976U 23039D   25344.27114627  .00022261  00000+0  53747-3 0  9998",
        "tle_line2": "2 55976  97.5101 147.0014 0004726  80.4563 279.7217 15.41194267151685"
      },
      "geometry": {
        "type": "Point",
        "coordinates": [
          -25.861327506105976,
          41.81663016521283
        ]
      }
    },
    {
      "type": "Feature",
      "properties": {
        "norad_id": 56232,
        "name": "FENGYUN 3G",
        "group": "weather",
        "lat": 47.32665928452292,
        "lon": -7.262523185039709,
        "alt_km": 394.66138722176584,
        "timestamp": "2025-12-10T14:53:36.769019+00:00",
        "meta_object_name": "FENGYUN 3G",
        "meta_object_id": "2023-055A",
        "meta_epoch": "2025-12-10T05:10:32.979936",
        "meta_mean_motion": 15.53405628,
        "meta_eccentricity": 0.00092896,
        "meta_inclination": 49.9931,
        "meta_ra_of_asc_node": 240.4781,
        "meta_arg_of_pericenter": 136.4608,
        "meta_mean_anomaly": 223.7095,
        "meta_ephemeris_type": 0,
        "meta_classification_type": "U",
        "meta_norad_cat_id": 56232,
        "meta_element_set_no": 999,
        "meta_rev_at_epoch": 15063,
        "meta_bstar": 0.00066182062,
        "meta_mean_motion_dot": 0.00042561,
        "meta_mean_motion_ddot": 0,
        "tle_line1": "1 56232U 23055A   25344.21565949  .00042561  00000+0  66182-3 0  9995",
        "tle_line2": "2 56232  49.9931 240.4781 0009289 136.4608 223.7095 15.53405628150639"
      },
      "geometry": {
        "type": "Point",
        "coordinates": [
          -7.262523185039709,
          47.32665928452292
        ]
      }
    },
    {
      "type": "Feature",
      "properties": {
        "norad_id": 57166,
        "name": "METEOR-M2 3",
        "group": "weather",
        "lat": -9.496353370820458,
        "lon": -143.2602585329952,
        "alt_km": 818.7417795238343,
        "timestamp": "2025-12-10T14:53:36.769032+00:00",
        "meta_object_name": "METEOR-M2 3",
        "meta_object_id": "2023-091A",
        "meta_epoch": "2025-12-10T07:15:40.675104",
        "meta_mean_motion": 14.24025678,
        "meta_eccentricity": 0.00040472,
        "meta_inclination": 98.6381,
        "meta_ra_of_asc_node": 37.8844,
        "meta_arg_of_pericenter": 15.652,
        "meta_mean_anomaly": 344.4784,
        "meta_ephemeris_type": 0,
        "meta_classification_type": "U",
        "meta_norad_cat_id": 57166,
        "meta_element_set_no": 999,
        "meta_rev_at_epoch": 12763,
        "meta_bstar": 3.8179754e-05,
        "meta_mean_motion_dot": 4.4e-07,
        "meta_mean_motion_ddot": 0,
        "tle_line1": "1 57166U 23091A   25344.30255411  .00000044  00000+0  38180-4 0  9990",
        "tle_line2": "2 57166  98.6381  37.8844 0004047  15.6520 344.4784 14.24025678127632"
      },
      "geometry": {
        "type": "Point",
        "coordinates": [
          -143.2602585329952,
          -9.496353370820458
        ]
      }
    },
    {
      "type": "Feature",
      "properties": {
        "norad_id": 57399,
        "name": "TIANMU-1 07",
        "group": "weather",
        "lat": -55.14830914674311,
        "lon": 45.10671786750023,
        "alt_km": 491.88185600027464,
        "timestamp": "2025-12-10T14:53:36.769041+00:00",
        "meta_object_name": "TIANMU-1 07",
        "meta_object_id": "2023-101A",
        "meta_epoch": "2025-12-10T07:16:45.105312",
        "meta_mean_motion": 15.28012934,
        "meta_eccentricity": 0.0005637,
        "meta_inclination": 97.2877,
        "meta_ra_of_asc_node": 34.2066,
        "meta_arg_of_pericenter": 87.694,
        "meta_mean_anomaly": 272.4945,
        "meta_ephemeris_type": 0,
        "meta_classification_type": "U",
        "meta_norad_cat_id": 57399,
        "meta_element_set_no": 999,
        "meta_rev_at_epoch": 13278,
        "meta_bstar": 0.00038153276,
        "meta_mean_motion_dot": 0.00010362,
        "meta_mean_motion_ddot": 0,
        "tle_line1": "1 57399U 23101A   25344.30329983  .00010362  00000+0  38153-3 0  9999",
        "tle_line2": "2 57399  97.2877  34.2066 0005637  87.6940 272.4945 15.28012934132780"
      },
      "geometry": {
        "type": "Point",
        "coordinates": [
          45.10671786750023,
          -55.14830914674311
        ]
      }
    }
  ]
}